<?xml version="1.0" encoding="utf-8"?>
<ndm xmlns:xsi="http://www.w3.org/2001/XMLSchema-instance" xsi:noNamespaceSchemaLocation="https://sanaregistry.org/r/ndmxml_unqualified/ndmxml-3.0.0-master-3.0.xsd"><omm id="CCSDS_OMM_VERS" version="3.0"><header><COMMENT>GENERATED VIA SPACE-TRACK.ORG API</COMMENT><CREATION_DATE>2024-04-08T14:46:18</CREATION_DATE><ORIGINATOR>18 SPCS</ORIGINATOR></header><body><segment><metadata><OBJECT_NAME>CHINASAT-6E</OBJECT_NAME><OBJECT_ID>2023-172A</OBJECT_ID><CENTER_NAME>EARTH</CENTER_NAME><REF_FRAME>TEME</REF_FRAME><TIME_SYSTEM>UTC</TIME_SYSTEM><MEAN_ELEMENT_THEORY>SGP4</MEAN_ELEMENT_THEORY></metadata><data><meanElements><EPOCH>2024-04-08T14:14:41.819712</EPOCH><MEAN_MOTION>1.00271901</MEAN_MOTION><ECCENTRICITY>0.00036240</ECCENTRICITY><INCLINATION>0.0288</INCLINATION><RA_OF_ASC_NODE>267.8422</RA_OF_ASC_NODE><ARG_OF_PERICENTER>172.6178</ARG_OF_PERICENTER><MEAN_ANOMALY>86.0630</MEAN_ANOMALY></meanElements><tleParameters><EPHEMERIS_TYPE>0</EPHEMERIS_TYPE><CLASSIFICATION_TYPE>U</CLASSIFICATION_TYPE><NORAD_CAT_ID>58253</NORAD_CAT_ID><ELEMENT_SET_NO>999</ELEMENT_SET_NO><REV_AT_EPOCH>163</REV_AT_EPOCH><BSTAR>0.00000000000000</BSTAR><MEAN_MOTION_DOT>-0.00000370</MEAN_MOTION_DOT><MEAN_MOTION_DDOT>0.0000000000000</MEAN_MOTION_DDOT></tleParameters><userDefinedParameters><USER_DEFINED parameter="SEMIMAJOR_AXIS">42164.699</USER_DEFINED><USER_DEFINED parameter="PERIOD">1436.095</USER_DEFINED><USER_DEFINED parameter="APOAPSIS">35801.845</USER_DEFINED><USER_DEFINED parameter="PERIAPSIS">35771.284</USER_DEFINED><USER_DEFINED parameter="OBJECT_TYPE">PAYLOAD</USER_DEFINED><USER_DEFINED parameter="RCS_SIZE">LARGE</USER_DEFINED><USER_DEFINED parameter="COUNTRY_CODE">PRC</USER_DEFINED><USER_DEFINED parameter="LAUNCH_DATE">2023-11-09</USER_DEFINED><USER_DEFINED parameter="SITE">XSC</USER_DEFINED><USER_DEFINED parameter="DECAY_DATE"/><USER_DEFINED parameter="FILE">4269450</USER_DEFINED><USER_DEFINED parameter="GP_ID">254018857</USER_DEFINED></userDefinedParameters></data></segment></body></omm></ndm>
