58253,CHINASAT 6E (ZX 6E),2023,1436.09,-1.0,+,0.03,Active,0,GSO,PRC,China,Unknown,Unknown,Unknown,1 58253U 23172A   24099.59353958 -.00000370  00000+0  00000+0 0  9998,2 58253   0.0288 267.8422 0003624 172.6178  86.0630  1.00271901  1635,1.00271901,0.0003624,GEO
